{
  "type": "FeatureCollection",
  "features": [
    {
      "type": "Feature",
      "properties": {
        "norad_id": 33924,
        "name": "COSMOS 2251 DEB",
        "group": "cosmos-2251-debris",
        "lat": -22.90189002960088,
        "lon": 102.69915379098795,
        "alt_km": 1158.1267219674028,
        "timestamp": "2025-12-09T07:41:33.604596+00:00",
        "meta_object_name": "COSMOS 2251 DEB",
        "meta_object_id": "1993-036ED",
        "meta_epoch": "2025-12-08T21:45:26.620704",
        "meta_mean_motion": 13.50214171,
        "meta_eccentricity": 0.04040572,
        "meta_inclination": 73.9143,
        "meta_ra_of_asc_node": 276.3628,
        "meta_arg_of_pericenter": 312.4913,
        "meta_mean_anomaly": 44.2696,
        "meta_ephemeris_type": 0,
        "meta_classification_type": "U",
        "meta_norad_cat_id": 33924,
        "meta_element_set_no": 999,
        "meta_rev_at_epoch": 82687,
        "meta_bstar": 0.0014550344,
        "meta_mean_motion_dot": 1.519e-05,
        "meta_mean_motion_ddot": 0,
        "tle_line1": "1 33924U 93036ED  25342.90655811  .00001519  00000+0  14550-2 0  9995",
        "tle_line2": "2 33924  73.9143 276.3628 0404057 312.4913  44.2696 13.50214171826874"
      },
      "geometry": {
        "type": "Point",
        "coordinates": [
          102.69915379098795,
          -22.90189002960088
        ]
      }
    },
    {
      "type": "Feature",
      "properties": {
        "norad_id": 33928,
        "name": "COSMOS 2251 DEB",
        "group": "cosmos-2251-debris",
        "lat": 6.263366476694821,
        "lon": 60.816205428905334,
        "alt_km": 693.41601843236,
        "timestamp": "2025-12-09T07:41:33.604607+00:00",
        "meta_object_name": "COSMOS 2251 DEB",
        "meta_object_id": "1993-036EH",
        "meta_epoch": "2025-12-08T21:42:36.408384",
        "meta_mean_motion": 14.47392668,
        "meta_eccentricity": 0.00612776,
        "meta_inclination": 73.9262,
        "meta_ra_of_asc_node": 59.7855,
        "meta_arg_of_pericenter": 354.7327,
        "meta_mean_anomaly": 5.3178,
        "meta_ephemeris_type": 0,
        "meta_classification_type": "U",
        "meta_norad_cat_id": 33928,
        "meta_element_set_no": 999,
        "meta_rev_at_epoch": 88589,
        "meta_bstar": 0.00036755825,
        "meta_mean_motion_dot": 1.351e-05,
        "meta_mean_motion_ddot": 0,
        "tle_line1": "1 33928U 93036EH  25342.90458806  .00001351  00000+0  36756-3 0  9991",
        "tle_line2": "2 33928  73.9262  59.7855 0061277 354.7327   5.3178 14.47392668885891"
      },
      "geometry": {
        "type": "Point",
        "coordinates": [
          60.816205428905334,
          6.263366476694821
        ]
      }
    },
    {
      "type": "Feature",
      "properties": {
        "norad_id": 33932,
        "name": "COSMOS 2251 DEB",
        "group": "cosmos-2251-debris",
        "lat": -64.741355612657,
        "lon": 179.57941451381868,
        "alt_km": 791.0552240890293,
        "timestamp": "2025-12-09T07:41:33.604617+00:00",
        "meta_object_name": "COSMOS 2251 DEB",
        "meta_object_id": "1993-036EM",
        "meta_epoch": "2025-12-08T23:51:31.523040",
        "meta_mean_motion": 14.38739727,
        "meta_eccentricity": 0.00351216,
        "meta_inclination": 74.0346,
        "meta_ra_of_asc_node": 322.8257,
        "meta_arg_of_pericenter": 40.0442,
        "meta_mean_anomaly": 320.3291,
        "meta_ephemeris_type": 0,
        "meta_classification_type": "U",
        "meta_norad_cat_id": 33932,
        "meta_element_set_no": 999,
        "meta_rev_at_epoch": 87944,
        "meta_bstar": 0.00065769663,
        "meta_mean_motion_dot": 2.008e-05,
        "meta_mean_motion_ddot": 0,
        "tle_line1": "1 33932U 93036EM  25342.99411485  .00002008  00000+0  65770-3 0  9995",
        "tle_line2": "2 33932  74.0346 322.8257 0035121  40.0442 320.3291 14.38739727879444"
      },
      "geometry": {
        "type": "Point",
        "coordinates": [
          179.57941451381868,
          -64.741355612657
        ]
      }
    },
    {
      "type": "Feature",
      "properties": {
        "norad_id": 33933,
        "name": "COSMOS 2251 DEB",
        "group": "cosmos-2251-debris",
        "lat": 14.941545624611742,
        "lon": -117.99720675666794,
        "alt_km": 778.9399870217612,
        "timestamp": "2025-12-09T07:41:33.604628+00:00",
        "meta_object_name": "COSMOS 2251 DEB",
        "meta_object_id": "1993-036EN",
        "meta_epoch": "2025-12-08T22:33:41.132160",
        "meta_mean_motion": 14.33478554,
        "meta_eccentricity": 0.00707962,
        "meta_inclination": 74.0894,
        "meta_ra_of_asc_node": 67.0614,
        "meta_arg_of_pericenter": 76.6041,
        "meta_mean_anomaly": 284.299,
        "meta_ephemeris_type": 0,
        "meta_classification_type": "U",
        "meta_norad_cat_id": 33933,
        "meta_element_set_no": 999,
        "meta_rev_at_epoch": 87730,
        "meta_bstar": 0.00043720306,
        "meta_mean_motion_dot": 1.217e-05,
        "meta_mean_motion_ddot": 0,
        "tle_line1": "1 33933U 93036EN  25342.94005940  .00001217  00000+0  43720-3 0  9998",
        "tle_line2": "2 33933  74.0894  67.0614 0070796  76.6041 284.2990 14.33478554877305"
      },
      "geometry": {
        "type": "Point",
        "coordinates": [
          -117.99720675666794,
          14.941545624611742
        ]
      }
    },
    {
      "type": "Feature",
      "properties": {
        "norad_id": 33934,
        "name": "COSMOS 2251 DEB",
        "group": "cosmos-2251-debris",
        "lat": -33.17169472616949,
        "lon": 96.30359855357385,
        "alt_km": 702.8998178009124,
        "timestamp": "2025-12-09T07:41:33.604639+00:00",
        "meta_object_name": "COSMOS 2251 DEB",
        "meta_object_id": "1993-036EP",
        "meta_epoch": "2025-12-08T18:41:12.780960",
        "meta_mean_motion": 14.59052953,
        "meta_eccentricity": 0.00158162,
        "meta_inclination": 74.0384,
        "meta_ra_of_asc_node": 108.1184,
        "meta_arg_of_pericenter": 231.9235,
        "meta_mean_anomaly": 128.0504,
        "meta_ephemeris_type": 0,
        "meta_classification_type": "U",
        "meta_norad_cat_id": 33934,
        "meta_element_set_no": 999,
        "meta_rev_at_epoch": 88681,
        "meta_bstar": 0.001656842,
        "meta_mean_motion_dot": 7.781e-05,
        "meta_mean_motion_ddot": 0,
        "tle_line1": "1 33934U 93036EP  25342.77862015  .00007781  00000+0  16568-2 0  9995",
        "tle_line2": "2 33934  74.0384 108.1184 0015816 231.9235 128.0504 14.59052953886813"
      },
      "geometry": {
        "type": "Point",
        "coordinates": [
          96.30359855357385,
          -33.17169472616949
        ]
      }
    },
    {
      "type": "Feature",
      "properties": {
        "norad_id": 33936,
        "name": "COSMOS 2251 DEB",
        "group": "cosmos-2251-debris",
        "lat": -55.57466353150078,
        "lon": -111.26339442909655,
        "alt_km": 683.8030666037412,
        "timestamp": "2025-12-09T07:41:33.604649+00:00",
        "meta_object_name": "COSMOS 2251 DEB",
        "meta_object_id": "1993-036ER",
        "meta_epoch": "2025-12-08T22:22:50.128032",
        "meta_mean_motion": 14.60231098,
        "meta_eccentricity": 0.0027801,
        "meta_inclination": 74.0187,
        "meta_ra_of_asc_node": 44.7602,
        "meta_arg_of_pericenter": 200.9201,
        "meta_mean_anomaly": 159.0829,
        "meta_ephemeris_type": 0,
        "meta_classification_type": "U",
        "meta_norad_cat_id": 33936,
        "meta_element_set_no": 999,
        "meta_rev_at_epoch": 88834,
        "meta_bstar": 0.00091435162,
        "meta_mean_motion_dot": 4.406e-05,
        "meta_mean_motion_ddot": 0,
        "tle_line1": "1 33936U 93036ER  25342.93252463  .00004406  00000+0  91435-3 0  9993",
        "tle_line2": "2 33936  74.0187  44.7602 0027801 200.9201 159.0829 14.60231098888347"
      },
      "geometry": {
        "type": "Point",
        "coordinates": [
          -111.26339442909655,
          -55.57466353150078
        ]
      }
    },
    {
      "type": "Feature",
      "properties": {
        "norad_id": 33938,
        "name": "COSMOS 2251 DEB",
        "group": "cosmos-2251-debris",
        "lat": -70.14061533963499,
        "lon": 85.9370095909552,
        "alt_km": 733.6408663458587,
        "timestamp": "2025-12-09T07:41:33.604661+00:00",
        "meta_object_name": "COSMOS 2251 DEB",
        "meta_object_id": "1993-036ET",
        "meta_epoch": "2025-12-08T19:13:46.019712",
        "meta_mean_motion": 14.46776553,
        "meta_eccentricity": 0.00168596,
        "meta_inclination": 74.0451,
        "meta_ra_of_asc_node": 214.5294,
        "meta_arg_of_pericenter": 296.9861,
        "meta_mean_anomaly": 137.5098,
        "meta_ephemeris_type": 0,
        "meta_classification_type": "U",
        "meta_norad_cat_id": 33938,
        "meta_element_set_no": 999,
        "meta_rev_at_epoch": 88343,
        "meta_bstar": 0.00078651484,
        "meta_mean_motion_dot": 2.826e-05,
        "meta_mean_motion_ddot": 0,
        "tle_line1": "1 33938U 93036ET  25342.80122708  .00002826  00000+0  78651-3 0  9998",
        "tle_line2": "2 33938  74.0451 214.5294 0016859 296.9861 137.5098 14.46776553883433"
      },
      "geometry": {
        "type": "Point",
        "coordinates": [
          85.9370095909552,
          -70.14061533963499
        ]
      }
    }
  ]
}